NORAD_CAT_ID,OBJECT_NAME,OBJECT_TYPE,EPOCH,MEAN_MOTION,ECCENTRICITY,INCLINATION,RA_OF_ASC_NODE,ARG_OF_PERICENTER,MEAN_ANOMALY,BSTAR,MEAN_MOTION_DOT,MEAN_MOTION_DDOT,TLE_LINE0,TLE_LINE1,TLE_LINE2,SEMIMAJOR_AXIS,PERIOD,APOGEE,PERIGEE,DECAYED
55269.0,STARLINK-5277,PAYLOAD,2023-06-11 22:54:51,14.98331211,0.0002817,70.0009,50.2695,266.6118,93.4718,8.7691e-05,9.54e-06,0.0,0 STARLINK-5277,1 55269U 23010A   23162.95476603  .00000954  00000-0  87691-4 0  9990,2 55269  70.0009  50.2695 0002817 266.6118  93.4718 14.98331211 23011,6950.189,96.107,574.012,570.096,0.0
55269.0,STARLINK-5277,PAYLOAD,2023-06-12 10:07:48,14.98330778,0.0002953,70.0005,49.0909,267.0162,93.0659,4.6056e-05,4.57e-06,0.0,0 STARLINK-5277,1 55269U 23010A   23163.42208683  .00000457  00000-0  46056-4 0  9992,2 55269  70.0005  49.0909 0002953 267.0162  93.0659 14.98330778 23080,6950.19,96.107,574.108,570.003,0.0
55269.0,STARLINK-5277,PAYLOAD,2023-06-12 22:56:52,14.98329877,0.0002805,70.0008,47.7444,265.4464,94.6375,8.3919e-05,9.08e-06,0.0,0 STARLINK-5277,1 55269U 23010A   23163.95616696  .00000908  00000-0  83919-4 0  9997,2 55269  70.0008  47.7444 0002805 265.4464  94.6375 14.98329877 23164,6950.193,96.107,574.008,570.109,0.0
55269.0,STARLINK-5277,PAYLOAD,2023-06-13 00:33:00,14.98330228,0.0002944,70.0007,47.5771,267.7075,92.3747,6.8963e-05,7.3e-06,0.0,0 STARLINK-5277,1 55269U 23010A   23164.02292691  .00000730  00000-0  68963-4 0  9996,2 55269  70.0007  47.5771 0002944 267.7075  92.3747 14.98330228 23172,6950.192,96.107,574.103,570.011,0.0
55269.0,STARLINK-5277,PAYLOAD,2023-06-13 02:09:08,14.98331872,0.0002917,70.0007,47.4086,267.2158,92.8667,6.9647e-05,7.38e-06,0.0,0 STARLINK-5277,1 55269U 23010A   23164.08968589  .00000738  00000-0  69647-4 0  9996,2 55269  70.0007  47.4086 0002917 267.2158  92.8667 14.98331872 23180,6950.187,96.107,574.079,570.025,0.0
55269.0,STARLINK-5277,PAYLOAD,2023-06-14 02:11:09,14.98334386,0.0002826,70.0004,44.8828,264.5831,95.5005,8.5771e-05,9.31e-06,0.0,0 STARLINK-5277,1 55269U 23010A   23165.09108291  .00000931  00000-0  85771-4 0  9995,2 55269  70.0004  44.8828 0002826 264.5831  95.5005 14.98334386 22749,6950.179,96.107,574.008,570.08,0.0
55269.0,STARLINK-5277,PAYLOAD,2023-06-15 02:13:10,14.98327739,0.0002814,70.0016,42.3578,273.193,86.8907,7.0839e-05,7.52e-06,0.0,0 STARLINK-5277,1 55269U 23010A   23166.09248729  .00000752  00000-0  70839-4 0  9997,2 55269  70.0016  42.3578 0002814 273.1930  86.8907 14.98327739 22894,6950.2,96.107,574.021,570.109,0.0
55269.0,STARLINK-5277,PAYLOAD,2023-06-15 18:14:31,14.98331977,0.0002953,70.0004,40.6748,266.87,93.2121,3.7359e-05,3.53e-06,0.0,0 STARLINK-5277,1 55269U 23010A   23166.76008402  .00000353  00000-0  37359-4 0  9990,2 55269  70.0004  40.6748 0002953 266.8700  93.2121 14.98331977 23585,6950.187,96.107,574.104,569.999,0.0
55269.0,STARLINK-5277,PAYLOAD,2023-06-16 02:15:11,14.98335474,0.0002997,70.0002,39.833,267.2245,92.8571,4.5223e-05,4.47e-06,0.0,0 STARLINK-5277,1 55269U 23010A   23167.09388083  .00000447  00000-0  45223-4 0  9996,2 55269  70.0002  39.8330 0002997 267.2245  92.8571 14.98335474 23048,6950.176,96.107,574.124,569.958,0.0
55269.0,STARLINK-5277,PAYLOAD,2023-06-16 08:39:43,14.98336298,0.0003025,70.0003,39.1597,267.9356,92.1457,3.8705e-05,3.69e-06,0.0,0 STARLINK-5277,1 55269U 23010A   23167.36091963  .00000369  00000-0  38705-4 0  9994,2 55269  70.0003  39.1597 0003025 267.9356  92.1457 14.98336298 23670,6950.173,96.107,574.141,569.936,0.0
55269.0,STARLINK-5277,PAYLOAD,2023-06-16 18:16:31,14.98332617,0.0003077,70.0001,38.1501,269.5778,90.5029,8.8442e-05,9.62e-06,0.0,0 STARLINK-5277,1 55269U 23010A   23167.76147961  .00000962  00000-0  88442-4 0  9990,2 55269  70.0001  38.1501 0003077 269.5778  90.5029 14.98332617 23730,6950.185,96.107,574.188,569.911,0.0
55269.0,STARLINK-5277,PAYLOAD,2023-06-17 08:41:45,14.98324337,0.0003084,70.0,36.635,267.5332,92.5474,-1.5357e-05,-2.76e-06,0.0,0 STARLINK-5277,1 55269U 23010A   23168.36232662 -.00000276  00000-0 -15357-4 0  9995,2 55269  70.0000  36.6350 0003084 267.5332  92.5474 14.98324337 23237,6950.21,96.107,574.219,569.932,0.0
55269.0,STARLINK-5277,PAYLOAD,2023-06-17 21:30:50,14.9832055,0.0002999,70.0,35.288,266.1134,93.9682,-0.00011626,-1.48e-05,0.0,0 STARLINK-5277,1 55269U 23010A   23168.89641411 -.00001480  00000-0 -11626-3 0  9991,2 55269  70.0000  35.2880 0002999 266.1134  93.9682 14.98320550 23902,6950.222,96.108,574.171,570.003,0.0
55269.0,STARLINK-5277,PAYLOAD,2023-06-18 00:43:06,14.98320485,0.0003085,69.9999,34.9515,266.5057,93.575,-0.00011888,-1.511e-05,0.0,0 STARLINK-5277,1 55269U 23010A   23169.02993504 -.00001511  00000-0 -11888-3 0  9995,2 55269  69.9999  34.9515 0003085 266.5057  93.5750 14.98320485 23338,6950.222,96.108,574.231,569.943,0.0
55269.0,STARLINK-5277,PAYLOAD,2023-06-18 08:43:46,14.98325476,0.0003061,70.0003,34.1099,267.3374,92.7434,-4.9875e-05,-6.88e-06,0.0,0 STARLINK-5277,1 55269U 23010A   23169.36373194 -.00000688  00000-0 -49875-4 0  9991,2 55269  70.0003  34.1099 0003061 267.3374  92.7434 14.98325476 23381,6950.207,96.107,574.199,569.944,0.0
55269.0,STARLINK-5277,PAYLOAD,2023-06-19 00:45:06,14.98331497,0.0003073,70.0003,32.4267,265.2725,94.8083,7.3773e-06,-5e-08,0.0,0 STARLINK-5277,1 55269U 23010A   23170.03132800 -.00000005  00000-0  73773-5 0  9991,2 55269  70.0003  32.4267 0003073 265.2725  94.8083 14.98331497 23483,6950.188,96.107,574.189,569.917,0.0
55269.0,STARLINK-5277,PAYLOAD,2023-06-19 08:45:46,14.98336924,0.0003082,70.0004,31.5852,264.2836,95.7972,5.8945e-05,6.11e-06,0.0,0 STARLINK-5277,1 55269U 23010A   23170.36512303  .00000611  00000-0  58945-4 0  9992,2 55269  70.0004  31.5852 0003082 264.2836  95.7972 14.98336924 24125,6950.171,96.107,574.179,569.894,0.0
55269.0,STARLINK-5277,PAYLOAD,2023-06-20 00:47:06,14.98337139,0.0003141,70.0003,29.9018,264.5887,95.4913,0.00027848,3.232e-05,0.0,0 STARLINK-5277,1 55269U 23010A   23171.03271795  .00003232  00000-0  27848-3 0  9993,2 55269  70.0003  29.9018 0003141 264.5887  95.4913 14.98337139 24226,6950.171,96.107,574.219,569.853,0.0
55269.0,STARLINK-5277,PAYLOAD,2023-06-20 16:48:28,14.98332631,0.0003039,70.0003,28.2186,264.4386,95.6426,6.7886e-05,7.17e-06,0.0,0 STARLINK-5277,1 55269U 23010A   23171.70032483  .00000717  00000-0  67886-4 0  9998,2 55269  70.0003  28.2186 0003039 264.4386  95.6426 14.98332631 23731,6950.185,96.107,574.162,569.938,0.0
55269.0,STARLINK-5277,PAYLOAD,2023-06-20 18:24:36,14.98333126,0.0003039,70.0003,28.0503,264.4498,95.6314,7.1366e-05,7.59e-06,0.0,0 STARLINK-5277,1 55269U 23010A   23171.76708432  .00000759  00000-0  71366-4 0  9992,2 55269  70.0003  28.0503 0003039 264.4498  95.6314 14.98333126 24339,6950.183,96.107,574.16,569.936,0.0
55269.0,STARLINK-5277,PAYLOAD,2023-06-21 00:49:08,14.98335568,0.0003029,70.0004,27.377,264.5385,95.5428,9.0188e-05,9.83e-06,0.0,0 STARLINK-5277,1 55269U 23010A   23172.03412147  .00000983  00000-0  90188-4 0  9990,2 55269  70.0004  27.3770 0003029 264.5385  95.5428 14.98335568 24374,6950.176,96.107,574.146,569.935,0.0
55269.0,STARLINK-5277,PAYLOAD,2023-06-21 20:02:44,14.98335729,0.0002906,70.0006,25.3572,264.93,95.1527,-7.3582e-05,-9.71e-06,0.0,0 STARLINK-5277,1 55269U 23010A   23172.83524243 -.00000971  00000-0 -73582-4 0  9997,2 55269  70.0006  25.3572 0002906 264.9300  95.1527 14.98335729 23901,6950.175,96.107,574.06,570.02,0.0
55269.0,STARLINK-5277,PAYLOAD,2023-06-22 20:04:45,14.98332198,0.0003108,70.0005,22.8325,267.6172,92.4631,5.9177e-06,-2.2e-07,0.0,0 STARLINK-5277,1 55269U 23010A   23173.83664100 -.00000022  00000-0  59177-5 0  9996,2 55269  70.0005  22.8325 0003108 267.6172  92.4631 14.98332198 24050,6950.186,96.107,574.211,569.891,0.0
55269.0,STARLINK-5277,PAYLOAD,2023-06-24 00:55:10,14.98332382,0.0003142,70.0004,19.8022,267.2802,92.7997,7.0998e-05,7.54e-06,0.0,0 STARLINK-5277,1 55269U 23010A   23175.03831920  .00000754  00000-0  70998-4 0  9990,2 55269  70.0004  19.8022 0003142 267.2802  92.7997 14.98332382 24236,6950.186,96.107,574.234,569.867,0.0
55269.0,STARLINK-5277,PAYLOAD,2023-06-25 07:21:44,14.98331049,0.0003127,70.0004,16.6039,267.9357,92.1444,4.3404e-05,4.25e-06,0.0,0 STARLINK-5277,1 55269U 23010A   23176.30676084  .00000425  00000-0  43404-4 0  9996,2 55269  70.0004  16.6039 0003127 267.9357  92.1444 14.98331049 24425,6950.19,96.107,574.228,569.881,0.0
55269.0,STARLINK-5277,PAYLOAD,2023-06-26 17:00:33,14.98329201,0.0003036,70.0005,13.0691,268.6159,91.4652,2.8118e-05,2.43e-06,0.0,0 STARLINK-5277,1 55269U 23010A   23177.70872184  .00000243  00000-0  28118-4 0  9993,2 55269  70.0005  13.0691 0003036 268.6159  91.4652 14.98329201 24631,6950.195,96.107,574.17,569.95,0.0
55269.0,STARLINK-5277,PAYLOAD,2023-06-27 20:14:50,14.9833169,0.0003065,70.0006,10.2076,267.6188,92.462,1.5233e-05,8.9e-07,0.0,0 STARLINK-5277,1 55269U 23010A   23178.84363969  .00000089  00000-0  15233-4 0  9997,2 55269  70.0006  10.2076 0003065 267.6188  92.4620 14.98331690 24801,6950.188,96.107,574.183,569.922,0.0
55269.0,STARLINK-5277,PAYLOAD,2023-06-29 18:42:44,14.98329699,0.0003105,70.0008,5.3268,268.8626,91.2178,1.4851e-05,8.4e-07,0.0,0 STARLINK-5277,1 55269U 23010A   23180.77968061  .00000084  00000-0  14851-4 0  9996,2 55269  70.0008   5.3268 0003105 268.8626  91.2178 14.98329699 25099,6950.194,96.107,574.217,569.901,0.0
55269.0,STARLINK-5277,PAYLOAD,2023-06-30 21:57:00,14.98334641,0.0003213,70.0005,2.4645,269.5437,90.5354,7.6401e-05,8.19e-06,0.0,0 STARLINK-5277,1 55269U 23010A   23181.91459371  .00000819  00000-0  76401-4 0  9997,2 55269  70.0005   2.4645 0003213 269.5437  90.5354 14.98334641 25261,6950.179,96.107,574.277,569.81,0.0
55269.0,STARLINK-5277,PAYLOAD,2023-07-01 18:46:46,14.98328692,0.0003181,70.0007,0.2762,269.1705,90.909,-9.5241e-06,-2.07e-06,0.0,0 STARLINK-5277,1 55269U 23010A   23182.78247948 -.00000207  00000-0 -95241-5 0  9995,2 55269  70.0007   0.2762 0003181 269.1705  90.9090 14.98328692 25391,6950.197,96.107,574.273,569.851,0.0
